IRIDIUM 7               
1 24793U 97020B   24213.56811810  .00000711  00000+0  24128-3 0  9993
2 24793  86.3980 311.2470 0002446  95.0538 265.0938 14.35318106425898
IRIDIUM 5               
1 24795U 97020D   24213.52774856  .00004824  00000+0  45340-3 0  9997
2 24795  86.3898 230.8197 0119725 203.5841 155.9871 14.88325304437669
IRIDIUM 4               
1 24796U 97020E   24213.82502218  .00000815  00000+0  27267-3 0  9996
2 24796  86.3972 308.2280 0002266  97.8431 262.3023 14.36247436426501
IRIDIUM 914             
1 24836U 97030A   24213.52747572  .00000861  00000+0  26653-3 0  9992
2 24836  86.3965 317.9059 0002455 138.6629 221.4756 14.40118396560967
IRIDIUM 16              
1 24841U 97030F   24213.84674452  .00000917  00000+0  29697-3 0  9992
2 24841  86.4070 339.8599 0003808  65.4393 294.7201 14.38006333421217
IRIDIUM 911             
1 24842U 97030G   24213.43756173  .00001332  00000+0  36272-3 0  9998
2 24842  86.4496 339.1188 0016452  88.0388 272.2699 14.46678830428698
IRIDIUM 17              
1 24870U 97034B   24213.84406577  .00000983  00000+0  32451-3 0  9994
2 24870  86.3976   9.4313 0002206  47.6064 312.5320 14.37095703417567
IRIDIUM 920             
1 24871U 97034C   24213.45982331  .00000989  00000+0  30265-3 0  9996
2 24871  86.4008 349.5764 0013441  65.2279 295.0317 14.40815006420385
